start=new Date('2022-12-04T00:00:00.000Z').valueOf();
sats=[{"MEAN_ANOMALY":"291.7348","ELEMENT_SET_NO":"999","ARG_OF_PERICENTER":"68.3833","EPHEMERIS_TYPE":"0","SEMIMAJOR_AXIS":"6925.367","CENTER_NAME":"EARTH","INCLINATION":"53.0544","TIME_SYSTEM":"UTC","OBJECT_ID":"2020-038AW","RA_OF_ASC_NODE":"147.0802","MEAN_ELEMENT_THEORY":"SGP4","MEAN_MOTION_DDOT":"0.0000000000000","EPOCH":"2022-12-03T20:00:10.590624","OBJECT_TYPE":"PAYLOAD","PERIAPSIS":"545.981","MEAN_MOTION_DOT":"0.00001131","REF_FRAME":"TEME","PERIOD":"95.593","MEAN_MOTION":"15.06393964","OBJECT_NAME":"STARLINK-1485","GP_ID":"219476122","NORAD_CAT_ID":"45774","SITE":"AFETR","TLE_LINE1":"1 45774U 20038AW  22337.83345591  .00001131  00000-0  94836-4 0  9995","CLASSIFICATION_TYPE":"U","RCS_SIZE":"LARGE","COUNTRY_CODE":"US","BSTAR":"0.00009483600000","TLE_LINE2":"2 45774  53.0544 147.0802 0001806  68.3833 291.7348 15.06393964137111","FILE":"3680595","LAUNCH_DATE":"2020-06-13","ECCENTRICITY":"0.00018060","DECAY_DATE":null,"APOAPSIS":"548.483","REV_AT_EPOCH":"13711"},{"MEAN_ANOMALY":"214.3203","ELEMENT_SET_NO":"999","EPHEMERIS_TYPE":"0","ARG_OF_PERICENTER":"145.7972","SEMIMAJOR_AXIS":"6921.003","CENTER_NAME":"EARTH","OBJECT_ID":"2020-038AX","TIME_SYSTEM":"UTC","INCLINATION":"53.0519","RA_OF_ASC_NODE":"146.9053","MEAN_ELEMENT_THEORY":"SGP4","EPOCH":"2022-12-03T19:27:23.995296","OBJECT_TYPE":"PAYLOAD","MEAN_MOTION_DDOT":"0.0000000000000","PERIAPSIS":"540.885","MEAN_MOTION_DOT":"0.00003891","PERIOD":"95.502","REF_FRAME":"TEME","MEAN_MOTION":"15.07818904","OBJECT_NAME":"STARLINK-1488","GP_ID":"219477376","SITE":"AFETR","NORAD_CAT_ID":"45775","TLE_LINE1":"1 45775U 20038AX  22337.81069439  .00003891  00000-0  26969-3 0  9994","COUNTRY_CODE":"US","CLASSIFICATION_TYPE":"U","RCS_SIZE":"LARGE","ECCENTRICITY":"0.00028650","DECAY_DATE":null,"TLE_LINE2":"2 45775  53.0519 146.9053 0002865 145.7972 214.3203 15.07818904137129","BSTAR":"0.00026969000000","FILE":"3680595","LAUNCH_DATE":"2020-06-13","REV_AT_EPOCH":"13712","APOAPSIS":"544.851"},{"RA_OF_ASC_NODE":"147.0269","TIME_SYSTEM":"UTC","OBJECT_ID":"2020-038AY","INCLINATION":"53.0543","SEMIMAJOR_AXIS":"6925.340","CENTER_NAME":"EARTH","OBJECT_TYPE":"PAYLOAD","EPOCH":"2022-12-03T20:16:04.296288","MEAN_MOTION_DDOT":"0.0000000000000","MEAN_ELEMENT_THEORY":"SGP4","ELEMENT_SET_NO":"999","MEAN_ANOMALY":"298.4709","EPHEMERIS_TYPE":"0","ARG_OF_PERICENTER":"61.6500","TLE_LINE1":"1 45776U 20038AY  22337.84449417  .00001508  00000-0  12011-3 0  9992","SITE":"AFETR","NORAD_CAT_ID":"45776","GP_ID":"219477622","REV_AT_EPOCH":"13712","APOAPSIS":"548.712","DECAY_DATE":null,"ECCENTRICITY":"0.00021760","FILE":"3680595","TLE_LINE2":"2 45776  53.0543 147.0269 0002176  61.6500 298.4709 15.06402732137127","LAUNCH_DATE":"2020-06-13","BSTAR":"0.00012011000000","COUNTRY_CODE":"US","CLASSIFICATION_TYPE":"U","RCS_SIZE":"LARGE","PERIOD":"95.592","REF_FRAME":"TEME","MEAN_MOTION_DOT":"0.00001508","PERIAPSIS":"545.698","OBJECT_NAME":"STARLINK-1489","MEAN_MOTION":"15.06402732"},{"ELEMENT_SET_NO":"999","MEAN_ANOMALY":"296.0070","EPHEMERIS_TYPE":"0","ARG_OF_PERICENTER":"64.1121","RA_OF_ASC_NODE":"147.3381","INCLINATION":"53.0535","TIME_SYSTEM":"UTC","OBJECT_ID":"2020-038AZ","CENTER_NAME":"EARTH","SEMIMAJOR_AXIS":"6925.355","MEAN_MOTION_DDOT":"0.0000000000000","OBJECT_TYPE":"PAYLOAD","EPOCH":"2022-12-03T18:35:14.297856","MEAN_ELEMENT_THEORY":"SGP4","REF_FRAME":"TEME","PERIOD":"95.592","MEAN_MOTION_DOT":"0.00001436","PERIAPSIS":"545.859","OBJECT_NAME":"STARLINK-1490","MEAN_MOTION":"15.06397978","TLE_LINE1":"1 45777U 20038AZ  22337.77447104  .00001436  00000-0  11527-3 0  9997","NORAD_CAT_ID":"45777","SITE":"AFETR","GP_ID":"219475876","APOAPSIS":"548.581","REV_AT_EPOCH":"13711","TLE_LINE2":"2 45777  53.0535 147.3381 0001965  64.1121 296.0070 15.06397978137118","LAUNCH_DATE":"2020-06-13","FILE":"3680595","BSTAR":"0.00011527000000","DECAY_DATE":null,"ECCENTRICITY":"0.00019650","CLASSIFICATION_TYPE":"U","RCS_SIZE":"LARGE","COUNTRY_CODE":"US"},{"CENTER_NAME":"EARTH","SEMIMAJOR_AXIS":"6925.313","INCLINATION":"53.0543","OBJECT_ID":"2020-038BA","TIME_SYSTEM":"UTC","RA_OF_ASC_NODE":"147.4130","MEAN_ELEMENT_THEORY":"SGP4","MEAN_MOTION_DDOT":"0.0000000000000","OBJECT_TYPE":"PAYLOAD","EPOCH":"2022-12-03T18:08:41.422272","MEAN_ANOMALY":"278.2193","ELEMENT_SET_NO":"999","EPHEMERIS_TYPE":"0","ARG_OF_PERICENTER":"81.8974","GP_ID":"219476622","NORAD_CAT_ID":"45778","SITE":"AFETR","TLE_LINE1":"1 45778U 20038BA  22337.75603498  .00002006  00000-0  15347-3 0  9994","CLASSIFICATION_TYPE":"U","RCS_SIZE":"LARGE","COUNTRY_CODE":"US","FILE":"3680595","TLE_LINE2":"2 45778  53.0543 147.4130 0001567  81.8974 278.2193 15.06411476137096","BSTAR":"0.00015347000000","LAUNCH_DATE":"2020-06-13","ECCENTRICITY":"0.00015670","DECAY_DATE":null,"APOAPSIS":"548.264","REV_AT_EPOCH":"13709","PERIAPSIS":"546.093","MEAN_MOTION_DOT":"0.00002006","REF_FRAME":"TEME","PERIOD":"95.591","MEAN_MOTION":"15.06411476","OBJECT_NAME":"STARLINK-1491"},{"SITE":"AFETR","NORAD_CAT_ID":"45779","TLE_LINE1":"1 45779U 20038BB  22337.81749648  .00004239  00000-0  27264-3 0  9991","GP_ID":"219476878","ECCENTRICITY":"0.00029040","DECAY_DATE":null,"TLE_LINE2":"2 45779  53.0541 145.7528 0002904 159.0251 201.0860 15.10393866137125","BSTAR":"0.00027264000000","FILE":"3680595","LAUNCH_DATE":"2020-06-13","REV_AT_EPOCH":"13712","APOAPSIS":"537.007","COUNTRY_CODE":"US","CLASSIFICATION_TYPE":"U","RCS_SIZE":"LARGE","PERIOD":"95.339","REF_FRAME":"TEME","PERIAPSIS":"532.992","MEAN_MOTION_DOT":"0.00004239","OBJECT_NAME":"STARLINK-1492","MEAN_MOTION":"15.10393866","OBJECT_ID":"2020-038BB","TIME_SYSTEM":"UTC","INCLINATION":"53.0541","RA_OF_ASC_NODE":"145.7528","CENTER_NAME":"EARTH","SEMIMAJOR_AXIS":"6913.135","OBJECT_TYPE":"PAYLOAD","EPOCH":"2022-12-03T19:37:11.695872","MEAN_MOTION_DDOT":"0.0000000000000","MEAN_ELEMENT_THEORY":"SGP4","ELEMENT_SET_NO":"999","MEAN_ANOMALY":"201.0860","EPHEMERIS_TYPE":"0","ARG_OF_PERICENTER":"159.0251"},{"OBJECT_NAME":"STARLINK-1496","MEAN_MOTION":"15.06393495","PERIOD":"95.593","REF_FRAME":"TEME","MEAN_MOTION_DOT":"0.00000658","PERIAPSIS":"546.189","REV_AT_EPOCH":"13709","APOAPSIS":"548.278","ECCENTRICITY":"0.00015080","DECAY_DATE":null,"TLE_LINE2":"2 45780  53.0549 147.3697 0001508  93.1729 266.9432 15.06393495137091","LAUNCH_DATE":"2020-06-13","FILE":"3680595","BSTAR":"0.00006304500000","COUNTRY_CODE":"US","CLASSIFICATION_TYPE":"U","RCS_SIZE":"LARGE","TLE_LINE1":"1 45780U 20038BC  22337.76341526  .00000658  00000-0  63045-4 0  9999","SITE":"AFETR","NORAD_CAT_ID":"45780","GP_ID":"219477123","EPHEMERIS_TYPE":"0","ARG_OF_PERICENTER":"93.1729","ELEMENT_SET_NO":"999","MEAN_ANOMALY":"266.9432","EPOCH":"2022-12-03T18:19:19.078464","OBJECT_TYPE":"PAYLOAD","MEAN_MOTION_DDOT":"0.0000000000000","MEAN_ELEMENT_THEORY":"SGP4","RA_OF_ASC_NODE":"147.3697","OBJECT_ID":"2020-038BC","TIME_SYSTEM":"UTC","INCLINATION":"53.0549","SEMIMAJOR_AXIS":"6925.368","CENTER_NAME":"EARTH"},{"OBJECT_NAME":"STARLINK-1497","MEAN_MOTION":"15.06394893","PERIOD":"95.592","REF_FRAME":"TEME","MEAN_MOTION_DOT":"0.00001244","PERIAPSIS":"546.012","APOAPSIS":"548.446","REV_AT_EPOCH":"13709","ECCENTRICITY":"0.00017570","DECAY_DATE":null,"TLE_LINE2":"2 45781  53.0542 147.5752 0001757  71.0114 289.1065 15.06394893137090","FILE":"3680595","LAUNCH_DATE":"2020-06-13","BSTAR":"0.00010240000000","COUNTRY_CODE":"US","CLASSIFICATION_TYPE":"U","RCS_SIZE":"LARGE","TLE_LINE1":"1 45781U 20038BD  22337.72286249  .00001244  00000-0  10240-3 0  9996","SITE":"AFETR","NORAD_CAT_ID":"45781","GP_ID":"219476376","EPHEMERIS_TYPE":"0","ARG_OF_PERICENTER":"71.0114","ELEMENT_SET_NO":"999","MEAN_ANOMALY":"289.1065","EPOCH":"2022-12-03T17:20:55.319136","OBJECT_TYPE":"PAYLOAD","MEAN_MOTION_DDOT":"0.0000000000000","MEAN_ELEMENT_THEORY":"SGP4","RA_OF_ASC_NODE":"147.5752","OBJECT_ID":"2020-038BD","TIME_SYSTEM":"UTC","INCLINATION":"53.0542","SEMIMAJOR_AXIS":"6925.364","CENTER_NAME":"EARTH"},{"CLASSIFICATION_TYPE":"U","RCS_SIZE":"LARGE","COUNTRY_CODE":"US","APOAPSIS":"535.864","REV_AT_EPOCH":"13714","BSTAR":"0.00024504000000","TLE_LINE2":"2 45782  53.0521 145.3355 0002061 142.4037 217.7098 15.10577488137146","FILE":"3680595","LAUNCH_DATE":"2020-06-13","DECAY_DATE":null,"ECCENTRICITY":"0.00020610","GP_ID":"219476123","TLE_LINE1":"1 45782U 20038BE  22337.80085736  .00003800  00000-0  24504-3 0  9992","NORAD_CAT_ID":"45782","SITE":"AFETR","MEAN_MOTION":"15.10577488","OBJECT_NAME":"STARLINK-1498","MEAN_MOTION_DOT":"0.00003800","PERIAPSIS":"533.015","REF_FRAME":"TEME","PERIOD":"95.328","MEAN_ELEMENT_THEORY":"SGP4","MEAN_MOTION_DDOT":"0.0000000000000","OBJECT_TYPE":"PAYLOAD","EPOCH":"2022-12-03T19:13:14.075904","SEMIMAJOR_AXIS":"6912.575","CENTER_NAME":"EARTH","RA_OF_ASC_NODE":"145.3355","INCLINATION":"53.0521","OBJECT_ID":"2020-038BE","TIME_SYSTEM":"UTC","EPHEMERIS_TYPE":"0","ARG_OF_PERICENTER":"142.4037","MEAN_ANOMALY":"217.7098","ELEMENT_SET_NO":"999"},{"MEAN_ANOMALY":"312.9543","ELEMENT_SET_NO":"999","EPHEMERIS_TYPE":"0","ARG_OF_PERICENTER":"47.1636","SEMIMAJOR_AXIS":"6925.386","CENTER_NAME":"EARTH","INCLINATION":"53.0545","TIME_SYSTEM":"UTC","OBJECT_ID":"2020-038BF","RA_OF_ASC_NODE":"146.9918","MEAN_ELEMENT_THEORY":"SGP4","MEAN_MOTION_DDOT":"0.0000000000000","OBJECT_TYPE":"PAYLOAD","EPOCH":"2022-12-03T20:26:41.913600","PERIAPSIS":"545.681","MEAN_MOTION_DOT":"0.00001277","REF_FRAME":"TEME","PERIOD":"95.593","MEAN_MOTION":"15.06387939","OBJECT_NAME":"STARLINK-1505","GP_ID":"219477377","NORAD_CAT_ID":"45783","SITE":"AFETR","TLE_LINE1":"1 45783U 20038BF  22337.85187400  .00001277  00000-0  10467-3 0  9998","RCS_SIZE":"LARGE","CLASSIFICATION_TYPE":"U","COUNTRY_CODE":"US","FILE":"3680595","TLE_LINE2":"2 45783  53.0545 146.9918 0002267  47.1636 312.9543 15.06387939137125","BSTAR":"0.00010467000000","LAUNCH_DATE":"2020-06-13","DECAY_DATE":null,"ECCENTRICITY":"0.00022670","REV_AT_EPOCH":"13712","APOAPSIS":"548.821"}];
